[{"OBJECT_NAME":"ONEWEB-0209","OBJECT_ID":"2021-031F","EPOCH":"2026-01-31T07:21:24.256800","MEAN_MOTION":13.14504198,"ECCENTRICITY":0.00019191,"INCLINATION":87.9023,"RA_OF_ASC_NODE":317.0088,"ARG_OF_PERICENTER":81.259,"MEAN_ANOMALY":278.8757,"EPHEMERIS_TYPE":0,"CLASSIFICATION_TYPE":"U","NORAD_CAT_ID":48215,"ELEMENT_SET_NO":999,"REV_AT_EPOCH":23039,"BSTAR":0.00023497755,"MEAN_MOTION_DOT":1.0e-6,"MEAN_MOTION_DDOT":0},{"OBJECT_NAME":"ONEWEB-0198","OBJECT_ID":"2021-031G","EPOCH":"2026-01-31T06:58:45.991776","MEAN_MOTION":13.14503678,"ECCENTRICITY":0.00016294,"INCLINATION":87.9028,"RA_OF_ASC_NODE":317.0101,"ARG_OF_PERICENTER":93.3656,"MEAN_ANOMALY":266.766,"EPHEMERIS_TYPE":0,"CLASSIFICATION_TYPE":"U","NORAD_CAT_ID":48216,"ELEMENT_SET_NO":999,"REV_AT_EPOCH":23050,"BSTAR":-3.3674158e-5,"MEAN_MOTION_DOT":0,"MEAN_MOTION_DDOT":0},{"OBJECT_NAME":"ONEWEB-0189","OBJECT_ID":"2021-031H","EPOCH":"2026-01-31T07:16:50.375712","MEAN_MOTION":13.14502643,"ECCENTRICITY":0.00016103,"INCLINATION":87.9029,"RA_OF_ASC_NODE":316.9832,"ARG_OF_PERICENTER":90.2413,"MEAN_ANOMALY":269.8901,"EPHEMERIS_TYPE":0,"CLASSIFICATION_TYPE":"U","NORAD_CAT_ID":48217,"ELEMENT_SET_NO":999,"REV_AT_EPOCH":23024,"BSTAR":0.00057599091,"MEAN_MOTION_DOT":2.26e-6,"MEAN_MOTION_DDOT":0},{"OBJECT_NAME":"ONEWEB-0196","OBJECT_ID":"2021-031J","EPOCH":"2026-01-31T06:44:51.244224","MEAN_MOTION":13.14503378,"ECCENTRICITY":0.00017223,"INCLINATION":87.9028,"RA_OF_ASC_NODE":316.999,"ARG_OF_PERICENTER":81.5223,"MEAN_ANOMALY":278.6102,"EPHEMERIS_TYPE":0,"CLASSIFICATION_TYPE":"U","NORAD_CAT_ID":48218,"ELEMENT_SET_NO":999,"REV_AT_EPOCH":23024,"BSTAR":-0.00035506551,"MEAN_MOTION_DOT":-1.19e-6,"MEAN_MOTION_DDOT":0},{"OBJECT_NAME":"ONEWEB-0183","OBJECT_ID":"2021-031K","EPOCH":"2026-01-31T06:08:19.331520","MEAN_MOTION":13.14502831,"ECCENTRICITY":0.00019116,"INCLINATION":87.9019,"RA_OF_ASC_NODE":317.0053,"ARG_OF_PERICENTER":76.1523,"MEAN_ANOMALY":283.9819,"EPHEMERIS_TYPE":0,"CLASSIFICATION_TYPE":"U","NORAD_CAT_ID":48219,"ELEMENT_SET_NO":999,"REV_AT_EPOCH":23033,"BSTAR":0.00043885748,"MEAN_MOTION_DOT":1.75e-6,"MEAN_MOTION_DDOT":0},{"OBJECT_NAME":"ONEWEB-0185","OBJECT_ID":"2021-031L","EPOCH":"2026-01-31T06:46:00.342624","MEAN_MOTION":13.14503116,"ECCENTRICITY":0.00021213,"INCLINATION":87.9035,"RA_OF_ASC_NODE":316.9836,"ARG_OF_PERICENTER":83.3834,"MEAN_ANOMALY":276.7537,"EPHEMERIS_TYPE":0,"CLASSIFICATION_TYPE":"U","NORAD_CAT_ID":48220,"ELEMENT_SET_NO":999,"REV_AT_EPOCH":23026,"BSTAR":-0.00031170674,"MEAN_MOTION_DOT":-1.03e-6,"MEAN_MOTION_DDOT":0},{"OBJECT_NAME":"ONEWEB-0187","OBJECT_ID":"2021-031M","EPOCH":"2026-01-31T06:17:15.966240","MEAN_MOTION":13.1450318,"ECCENTRICITY":0.00018301,"INCLINATION":87.9024,"RA_OF_ASC_NODE":317.0234,"ARG_OF_PERICENTER":85.2549,"MEAN_ANOMALY":274.879,"EPHEMERIS_TYPE":0,"CLASSIFICATION_TYPE":"U","NORAD_CAT_ID":48221,"ELEMENT_SET_NO":999,"REV_AT_EPOCH":23027,"BSTAR":0.00015736463,"MEAN_MOTION_DOT":7.1e-7,"MEAN_MOTION_DDOT":0},{"OBJECT_NAME":"ONEWEB-0192","OBJECT_ID":"2021-031N","EPOCH":"2026-01-31T05:34:04.259136","MEAN_MOTION":13.14502537,"ECCENTRICITY":0.00016299,"INCLINATION":87.902,"RA_OF_ASC_NODE":317.0186,"ARG_OF_PERICENTER":80.8609,"MEAN_ANOMALY":279.2705,"EPHEMERIS_TYPE":0,"CLASSIFICATION_TYPE":"U","NORAD_CAT_ID":48222,"ELEMENT_SET_NO":999,"REV_AT_EPOCH":23018,"BSTAR":0.00071817722,"MEAN_MOTION_DOT":2.79e-6,"MEAN_MOTION_DDOT":0},{"OBJECT_NAME":"ONEWEB-0219","OBJECT_ID":"2021-031P","EPOCH":"2026-01-31T06:53:59.706240","MEAN_MOTION":13.14503347,"ECCENTRICITY":0.00018709,"INCLINATION":87.9027,"RA_OF_ASC_NODE":316.9894,"ARG_OF_PERICENTER":83.8488,"MEAN_ANOMALY":276.2854,"EPHEMERIS_TYPE":0,"CLASSIFICATION_TYPE":"U","NORAD_CAT_ID":48223,"ELEMENT_SET_NO":999,"REV_AT_EPOCH":23039,"BSTAR":1.3064333e-5,"MEAN_MOTION_DOT":1.8e-7,"MEAN_MOTION_DDOT":0},{"OBJECT_NAME":"ONEWEB-0202","OBJECT_ID":"2021-031Q","EPOCH":"2026-01-31T06:26:35.083968","MEAN_MOTION":13.14502117,"ECCENTRICITY":0.00013867,"INCLINATION":87.9027,"RA_OF_ASC_NODE":317.0029,"ARG_OF_PERICENTER":102.4764,"MEAN_ANOMALY":257.6521,"EPHEMERIS_TYPE":0,"CLASSIFICATION_TYPE":"U","NORAD_CAT_ID":48224,"ELEMENT_SET_NO":999,"REV_AT_EPOCH":23037,"BSTAR":-0.00024222235,"MEAN_MOTION_DOT":-7.7e-7,"MEAN_MOTION_DDOT":0},{"OBJECT_NAME":"ONEWEB-0204","OBJECT_ID":"2021-031R","EPOCH":"2026-01-31T07:15:40.846176","MEAN_MOTION":13.1450384,"ECCENTRICITY":0.00020146,"INCLINATION":87.9029,"RA_OF_ASC_NODE":316.9888,"ARG_OF_PERICENTER":75.6593,"MEAN_ANOMALY":284.476,"EPHEMERIS_TYPE":0,"CLASSIFICATION_TYPE":"U","NORAD_CAT_ID":48225,"ELEMENT_SET_NO":999,"REV_AT_EPOCH":23027,"BSTAR":0.00069063685,"MEAN_MOTION_DOT":2.69e-6,"MEAN_MOTION_DDOT":0},{"OBJECT_NAME":"ONEWEB-0205","OBJECT_ID":"2021-031S","EPOCH":"2026-01-31T06:40:17.872032","MEAN_MOTION":13.14503137,"ECCENTRICITY":0.00018433,"INCLINATION":87.9031,"RA_OF_ASC_NODE":316.9864,"ARG_OF_PERICENTER":82.6566,"MEAN_ANOMALY":277.4774,"EPHEMERIS_TYPE":0,"CLASSIFICATION_TYPE":"U","NORAD_CAT_ID":48226,"ELEMENT_SET_NO":999,"REV_AT_EPOCH":23028,"BSTAR":-0.00032704437,"MEAN_MOTION_DOT":-1.08e-6,"MEAN_MOTION_DDOT":0},{"OBJECT_NAME":"ONEWEB-0206","OBJECT_ID":"2021-031T","EPOCH":"2026-01-31T06:01:28.657632","MEAN_MOTION":13.14503303,"ECCENTRICITY":0.00015714,"INCLINATION":87.9041,"RA_OF_ASC_NODE":316.9876,"ARG_OF_PERICENTER":70.9614,"MEAN_ANOMALY":289.1686,"EPHEMERIS_TYPE":0,"CLASSIFICATION_TYPE":"U","NORAD_CAT_ID":48227,"ELEMENT_SET_NO":999,"REV_AT_EPOCH":23023,"BSTAR":0.00060676472,"MEAN_MOTION_DOT":2.38e-6,"MEAN_MOTION_DDOT":0},{"OBJECT_NAME":"ONEWEB-0182","OBJECT_ID":"2021-031U","EPOCH":"2026-01-31T05:54:37.537056","MEAN_MOTION":13.14502467,"ECCENTRICITY":0.00019562,"INCLINATION":87.902,"RA_OF_ASC_NODE":317.0069,"ARG_OF_PERICENTER":74.6541,"MEAN_ANOMALY":285.4805,"EPHEMERIS_TYPE":0,"CLASSIFICATION_TYPE":"U","NORAD_CAT_ID":48228,"ELEMENT_SET_NO":999,"REV_AT_EPOCH":23044,"BSTAR":0.00070717384,"MEAN_MOTION_DOT":2.75e-6,"MEAN_MOTION_DDOT":0},{"OBJECT_NAME":"ONEWEB-0186","OBJECT_ID":"2021-031V","EPOCH":"2026-01-31T06:10:36.807744","MEAN_MOTION":13.14504608,"ECCENTRICITY":0.00017329,"INCLINATION":87.9035,"RA_OF_ASC_NODE":316.989,"ARG_OF_PERICENTER":80.3036,"MEAN_ANOMALY":279.8289,"EPHEMERIS_TYPE":0,"CLASSIFICATION_TYPE":"U","NORAD_CAT_ID":48229,"ELEMENT_SET_NO":999,"REV_AT_EPOCH":23039,"BSTAR":0.0003275726,"MEAN_MOTION_DOT":1.34e-6,"MEAN_MOTION_DDOT":0},{"OBJECT_NAME":"ONEWEB-0181","OBJECT_ID":"2021-031W","EPOCH":"2026-01-31T05:38:38.999904","MEAN_MOTION":13.14502969,"ECCENTRICITY":0.00017,"INCLINATION":87.9017,"RA_OF_ASC_NODE":317.0402,"ARG_OF_PERICENTER":84.7845,"MEAN_ANOMALY":275.3479,"EPHEMERIS_TYPE":0,"CLASSIFICATION_TYPE":"U","NORAD_CAT_ID":48230,"ELEMENT_SET_NO":999,"REV_AT_EPOCH":23024,"BSTAR":0.0008466131,"MEAN_MOTION_DOT":3.27e-6,"MEAN_MOTION_DDOT":0},{"OBJECT_NAME":"ONEWEB-0188","OBJECT_ID":"2021-031X","EPOCH":"2026-01-31T06:33:25.795008","MEAN_MOTION":13.14502663,"ECCENTRICITY":0.00017357,"INCLINATION":87.9021,"RA_OF_ASC_NODE":317.03,"ARG_OF_PERICENTER":78.4238,"MEAN_ANOMALY":281.7086,"EPHEMERIS_TYPE":0,"CLASSIFICATION_TYPE":"U","NORAD_CAT_ID":48231,"ELEMENT_SET_NO":999,"REV_AT_EPOCH":23015,"BSTAR":-0.00022704366,"MEAN_MOTION_DOT":-7.1e-7,"MEAN_MOTION_DDOT":0}]
