ONEWEB-0209             
1 48215U 21031F   26031.30653075  .00000100  00000+0  23498-3 0  9997
2 48215  87.9023 317.0088 0001919  81.2590 278.8757 13.14504198230390
ONEWEB-0198             
1 48216U 21031G   26031.29081009  .00000000  00000+0 -33674-4 0  9996
2 48216  87.9028 317.0101 0001629  93.3656 266.7660 13.14503678230501
ONEWEB-0189             
1 48217U 21031H   26031.30336083  .00000226  00000+0  57599-3 0  9994
2 48217  87.9029 316.9832 0001610  90.2413 269.8901 13.14502643230243
ONEWEB-0196             
1 48218U 21031J   26031.28114866 -.00000119  00000+0 -35507-3 0  9993
2 48218  87.9028 316.9990 0001722  81.5223 278.6102 13.14503378230241
ONEWEB-0183             
1 48219U 21031K   26031.25577930  .00000175  00000+0  43886-3 0  9995
2 48219  87.9019 317.0053 0001911  76.1523 283.9819 13.14502831230334
ONEWEB-0185             
1 48220U 21031L   26031.28194841 -.00000103  00000+0 -31171-3 0  9993
2 48220  87.9035 316.9836 0002121  83.3834 276.7537 13.14503116230266
ONEWEB-0187             
1 48221U 21031M   26031.26199035  .00000071  00000+0  15736-3 0  9993
2 48221  87.9024 317.0234 0001830  85.2549 274.8790 13.14503180230271
ONEWEB-0192             
1 48222U 21031N   26031.23199374  .00000279  00000+0  71818-3 0  9990
2 48222  87.9020 317.0186 0001629  80.8609 279.2705 13.14502537230188
ONEWEB-0219             
1 48223U 21031P   26031.28749660  .00000018  00000+0  13064-4 0  9996
2 48223  87.9027 316.9894 0001870  83.8488 276.2854 13.14503347230391
ONEWEB-0202             
1 48224U 21031Q   26031.26846162 -.00000077  00000+0 -24222-3 0  9994
2 48224  87.9027 317.0029 0001386 102.4764 257.6521 13.14502117230377
ONEWEB-0204             
1 48225U 21031R   26031.30255609  .00000269  00000+0  69064-3 0  9994
2 48225  87.9029 316.9888 0002014  75.6593 284.4760 13.14503840230277
ONEWEB-0205             
1 48226U 21031S   26031.27798463 -.00000108  00000+0 -32704-3 0  9996
2 48226  87.9031 316.9864 0001843  82.6566 277.4774 13.14503137230289
ONEWEB-0206             
1 48227U 21031T   26031.25102613  .00000238  00000+0  60676-3 0  9992
2 48227  87.9041 316.9876 0001571  70.9614 289.1686 13.14503303230238
ONEWEB-0182             
1 48228U 21031U   26031.24626779  .00000275  00000+0  70717-3 0  9994
2 48228  87.9020 317.0069 0001956  74.6541 285.4805 13.14502467230444
ONEWEB-0186             
1 48229U 21031V   26031.25737046  .00000134  00000+0  32757-3 0  9992
2 48229  87.9035 316.9890 0001732  80.3036 279.8289 13.14504608230392
ONEWEB-0181             
1 48230U 21031W   26031.23517361  .00000327  00000+0  84661-3 0  9993
2 48230  87.9017 317.0402 0001700  84.7845 275.3479 13.14502969230240
ONEWEB-0188             
1 48231U 21031X   26031.27321522 -.00000071  00000+0 -22704-3 0  9998
2 48231  87.9021 317.0300 0001735  78.4238 281.7086 13.14502663230153
